CSS (TIANHE)            
1 48274U 21035A   23364.50116089  .00037321  00000+0  37825-3 0  9997
2 48274  41.4713  39.7930 0006186 100.3763 259.7775 15.64481654152531
